{"dragon": {"capsule": null, "mass_returned_kg": null, "mass_returned_lbs": null, "flight_time_sec": null, "manifest": null, "water_landing": null, "land_landing": null}, "name": "Starlink-3", "type": "Satellite", "reused": false, "launch": "5eb87d3fffd86e000604b382", "customers": ["SpaceX"], "norad_ids": [45044, 45045, 45046, 45047, 45048, 45049, 45050, 45051, 45052, 45053, 45054, 45055, 45056, 45057, 45058, 45059, 45060, 45061, 45062, 45063, 45064, 45065, 45066, 45067, 45068, 45069, 45070, 45071, 45072, 45073, 45074, 45075, 45076, 45077, 45078, 45079, 45080, 45081, 45082, 45083, 45084, 45085, 45086, 45087, 45088, 45089, 45090, 45091, 45092, 45093, 45094, 45095, 45096, 45097, 45098, 45099, 45100, 45101, 45102, 45103], "nationalities": ["United States"], "manufacturers": ["SpaceX"], "mass_kg": 15600, "mass_lbs": 34392, "orbit": "VLEO", "reference_system": "geocentric", "regime": "very-low-earth", "longitude": null, "semi_major_axis_km": 6925.355, "eccentricity": 0.0001795, "periapsis_km": 545.977, "apoapsis_km": 548.464, "inclination_deg": 53.0532, "period_min": 95.592, "lifespan_years": null, "epoch": "2022-01-29T13:11:39.000Z", "mean_motion": 15.06397758, "raan": 161.0146, "arg_of_pericenter": 82.5938, "mean_anomaly": 277.5254, "id": "5eb0e4d0b6c3bb0006eeb251"}